SL-16 R/B               
1 22285U 92093B   25317.76890125  .00000394  00000+0  22641-3 0  9991
2 22285  71.0216 247.6081 0002726 152.3319 207.7950 14.15425275696756
COSMOS 2228             
1 22286U 92094A   25317.87430901  .00005741  00000+0  50122-3 0  9993
2 22286  82.5192 348.1520 0017235 336.9577  23.0870 14.96545325758734
SL-16 R/B               
1 22566U 93016B   25317.79778412  .00000395  00000+0  22731-3 0  9997
2 22566  71.0059  98.5866 0009061 150.4591 209.7046 14.15281376685777
COSMOS 2242             
1 22626U 93024A   25317.60732362  .00005474  00000+0  48552-3 0  9999
2 22626  82.5216  17.6836 0015762 340.6692  19.3930 14.95939329763034
SL-16 R/B               
1 22803U 93059B   25317.58168066  .00000404  00000+0  22385-3 0  9999
2 22803  70.9901 255.9698 0016219  19.8204 340.3546 14.17206326663080
ARIANE 40 R/B           
1 22830U 93061H   25317.63710562  .00000675  00000+0  26345-3 0  9992
2 22830  98.5112  23.6918 0009626 267.1099  92.8983 14.32775033677485
COSMOS 2278             
1 23087U 94023A   25317.39711858  .00000530  00000+0  30174-3 0  9993
2 23087  71.0542  58.3967 0009990 217.0343 143.0091 14.14338589628365
SL-16 R/B               
1 23088U 94023B   25317.42603978 -.00000135  00000+0 -45008-4 0  9997
2 23088  70.9995 315.0473 0001347 161.5717 198.5455 14.14992506629643
SL-16 R/B               
1 23343U 94074B   25317.11584168  .00001222  00000+0  17118-3 0  9998
2 23343  97.7242 347.5926 0005357 233.7386 191.4524 14.79239850670014
SL-16 R/B               
1 23405U 94077B   25317.73566621  .00000309  00000+0  18257-3 0  9992
2 23405  70.9829 236.4282 0004027 308.3049  51.7712 14.15545715599822
ARIANE 40+ R/B          
1 23561U 95021B   25317.70670632  .00000903  00000+0  30265-3 0  9993
2 23561  98.4685  25.6416 0007735 125.1698  45.5780 14.39663270602555
SL-16 R/B               
1 23705U 95058B   25317.73688569 -.00000038  00000+0  48663-5 0  9997
2 23705  71.0227  63.6930 0014917 292.6438  67.3107 14.15476885551443
