CCSDS_OMM_VERS = 2.0
CREATION_DATE  = 
ORIGINATOR     = 

OBJECT_NAME    = SL-16 R/B
OBJECT_ID      = 1992-093B
CENTER_NAME    = EARTH
REF_FRAME      = TEME
TIME_SYSTEM    = UTC
MEAN_ELEMENT_THEORY = SGP/SGP4

EPOCH          = 2025-11-13T18:27:13.068000
MEAN_MOTION    = 14.15425275
ECCENTRICITY   = .00027267
INCLINATION    = 71.0216
RA_OF_ASC_NODE = 247.6081
ARG_OF_PERICENTER = 152.3319
MEAN_ANOMALY   = 207.7950

EPHEMERIS_TYPE = 0
CLASSIFICATION_TYPE = U
NORAD_CAT_ID   = 22285
ELEMENT_SET_NO = 999
REV_AT_EPOCH   = 69675
BSTAR          = .2264132E-3
MEAN_MOTION_DOT = .394E-5
MEAN_MOTION_DDOT = 0

CCSDS_OMM_VERS = 2.0
CREATION_DATE  = 
ORIGINATOR     = 

OBJECT_NAME    = COSMOS 2228
OBJECT_ID      = 1992-094A
CENTER_NAME    = EARTH
REF_FRAME      = TEME
TIME_SYSTEM    = UTC
MEAN_ELEMENT_THEORY = SGP/SGP4

EPOCH          = 2025-11-13T20:59:00.298464
MEAN_MOTION    = 14.96545325
ECCENTRICITY   = .0017235
INCLINATION    = 82.5192
RA_OF_ASC_NODE = 348.1520
ARG_OF_PERICENTER = 336.9577
MEAN_ANOMALY   = 23.0870

EPHEMERIS_TYPE = 0
CLASSIFICATION_TYPE = U
NORAD_CAT_ID   = 22286
ELEMENT_SET_NO = 999
REV_AT_EPOCH   = 75873
BSTAR          = .50121989E-3
MEAN_MOTION_DOT = .5741E-4
MEAN_MOTION_DDOT = 0

CCSDS_OMM_VERS = 2.0
CREATION_DATE  = 
ORIGINATOR     = 

OBJECT_NAME    = SL-16 R/B
OBJECT_ID      = 1993-016B
CENTER_NAME    = EARTH
REF_FRAME      = TEME
TIME_SYSTEM    = UTC
MEAN_ELEMENT_THEORY = SGP/SGP4

EPOCH          = 2025-11-13T19:08:48.547968
MEAN_MOTION    = 14.15281376
ECCENTRICITY   = .00090617
INCLINATION    = 71.0059
RA_OF_ASC_NODE = 98.5866
ARG_OF_PERICENTER = 150.4591
MEAN_ANOMALY   = 209.7046

EPHEMERIS_TYPE = 0
CLASSIFICATION_TYPE = U
NORAD_CAT_ID   = 22566
ELEMENT_SET_NO = 999
REV_AT_EPOCH   = 68577
BSTAR          = .22730866E-3
MEAN_MOTION_DOT = .395E-5
MEAN_MOTION_DDOT = 0

CCSDS_OMM_VERS = 2.0
CREATION_DATE  = 
ORIGINATOR     = 

OBJECT_NAME    = COSMOS 2242
OBJECT_ID      = 1993-024A
CENTER_NAME    = EARTH
REF_FRAME      = TEME
TIME_SYSTEM    = UTC
MEAN_ELEMENT_THEORY = SGP/SGP4

EPOCH          = 2025-11-13T14:34:32.760768
MEAN_MOTION    = 14.95939329
ECCENTRICITY   = .0015762
INCLINATION    = 82.5216
RA_OF_ASC_NODE = 17.6836
ARG_OF_PERICENTER = 340.6692
MEAN_ANOMALY   = 19.3930

EPHEMERIS_TYPE = 0
CLASSIFICATION_TYPE = U
NORAD_CAT_ID   = 22626
ELEMENT_SET_NO = 999
REV_AT_EPOCH   = 76303
BSTAR          = .48552E-3
MEAN_MOTION_DOT = .5474E-4
MEAN_MOTION_DDOT = 0

CCSDS_OMM_VERS = 2.0
CREATION_DATE  = 
ORIGINATOR     = 

OBJECT_NAME    = SL-16 R/B
OBJECT_ID      = 1993-059B
CENTER_NAME    = EARTH
REF_FRAME      = TEME
TIME_SYSTEM    = UTC
MEAN_ELEMENT_THEORY = SGP/SGP4

EPOCH          = 2025-11-13T13:57:37.209024
MEAN_MOTION    = 14.17206326
ECCENTRICITY   = .0016219
INCLINATION    = 70.9901
RA_OF_ASC_NODE = 255.9698
ARG_OF_PERICENTER = 19.8204
MEAN_ANOMALY   = 340.3546

EPHEMERIS_TYPE = 0
CLASSIFICATION_TYPE = U
NORAD_CAT_ID   = 22803
ELEMENT_SET_NO = 999
REV_AT_EPOCH   = 66308
BSTAR          = .22385E-3
MEAN_MOTION_DOT = .404E-5
MEAN_MOTION_DDOT = 0

CCSDS_OMM_VERS = 2.0
CREATION_DATE  = 
ORIGINATOR     = 

OBJECT_NAME    = ARIANE 40 R/B
OBJECT_ID      = 1993-061H
CENTER_NAME    = EARTH
REF_FRAME      = TEME
TIME_SYSTEM    = UTC
MEAN_ELEMENT_THEORY = SGP/SGP4

EPOCH          = 2025-11-13T15:17:25.925568
MEAN_MOTION    = 14.32775033
ECCENTRICITY   = .00096267
INCLINATION    = 98.5112
RA_OF_ASC_NODE = 23.6918
ARG_OF_PERICENTER = 267.1099
MEAN_ANOMALY   = 92.8983

EPHEMERIS_TYPE = 0
CLASSIFICATION_TYPE = U
NORAD_CAT_ID   = 22830
ELEMENT_SET_NO = 999
REV_AT_EPOCH   = 67748
BSTAR          = .26344833E-3
MEAN_MOTION_DOT = .675E-5
MEAN_MOTION_DDOT = 0

CCSDS_OMM_VERS = 2.0
CREATION_DATE  = 
ORIGINATOR     = 

OBJECT_NAME    = COSMOS 2278
OBJECT_ID      = 1994-023A
CENTER_NAME    = EARTH
REF_FRAME      = TEME
TIME_SYSTEM    = UTC
MEAN_ELEMENT_THEORY = SGP/SGP4

EPOCH          = 2025-11-13T09:31:51.045312
MEAN_MOTION    = 14.14338589
ECCENTRICITY   = .000999
INCLINATION    = 71.0542
RA_OF_ASC_NODE = 58.3967
ARG_OF_PERICENTER = 217.0343
MEAN_ANOMALY   = 143.0091

EPHEMERIS_TYPE = 0
CLASSIFICATION_TYPE = U
NORAD_CAT_ID   = 23087
ELEMENT_SET_NO = 999
REV_AT_EPOCH   = 62836
BSTAR          = .30174E-3
MEAN_MOTION_DOT = .53E-5
MEAN_MOTION_DDOT = 0

CCSDS_OMM_VERS = 2.0
CREATION_DATE  = 
ORIGINATOR     = 

OBJECT_NAME    = SL-16 R/B
OBJECT_ID      = 1994-023B
CENTER_NAME    = EARTH
REF_FRAME      = TEME
TIME_SYSTEM    = UTC
MEAN_ELEMENT_THEORY = SGP/SGP4

EPOCH          = 2025-11-13T10:13:29.836992
MEAN_MOTION    = 14.14992506
ECCENTRICITY   = .0001347
INCLINATION    = 70.9995
RA_OF_ASC_NODE = 315.0473
ARG_OF_PERICENTER = 161.5717
MEAN_ANOMALY   = 198.5455

EPHEMERIS_TYPE = 0
CLASSIFICATION_TYPE = U
NORAD_CAT_ID   = 23088
ELEMENT_SET_NO = 999
REV_AT_EPOCH   = 62964
BSTAR          = -.45008E-4
MEAN_MOTION_DOT = -.135E-5
MEAN_MOTION_DDOT = 0

CCSDS_OMM_VERS = 2.0
CREATION_DATE  = 
ORIGINATOR     = 

OBJECT_NAME    = SL-16 R/B
OBJECT_ID      = 1994-074B
CENTER_NAME    = EARTH
REF_FRAME      = TEME
TIME_SYSTEM    = UTC
MEAN_ELEMENT_THEORY = SGP/SGP4

EPOCH          = 2025-11-13T02:46:48.721152
MEAN_MOTION    = 14.79239850
ECCENTRICITY   = .00053579
INCLINATION    = 97.7242
RA_OF_ASC_NODE = 347.5926
ARG_OF_PERICENTER = 233.7386
MEAN_ANOMALY   = 191.4524

EPHEMERIS_TYPE = 0
CLASSIFICATION_TYPE = U
NORAD_CAT_ID   = 23343
ELEMENT_SET_NO = 999
REV_AT_EPOCH   = 67001
BSTAR          = .17117716E-3
MEAN_MOTION_DOT = .1222E-4
MEAN_MOTION_DDOT = 0

CCSDS_OMM_VERS = 2.0
CREATION_DATE  = 
ORIGINATOR     = 

OBJECT_NAME    = SL-16 R/B
OBJECT_ID      = 1994-077B
CENTER_NAME    = EARTH
REF_FRAME      = TEME
TIME_SYSTEM    = UTC
MEAN_ELEMENT_THEORY = SGP/SGP4

EPOCH          = 2025-11-13T17:39:21.560544
MEAN_MOTION    = 14.15545715
ECCENTRICITY   = .00040273
INCLINATION    = 70.9829
RA_OF_ASC_NODE = 236.4282
ARG_OF_PERICENTER = 308.3049
MEAN_ANOMALY   = 51.7712

EPHEMERIS_TYPE = 0
CLASSIFICATION_TYPE = U
NORAD_CAT_ID   = 23405
ELEMENT_SET_NO = 999
REV_AT_EPOCH   = 59982
BSTAR          = .18256962E-3
MEAN_MOTION_DOT = .309E-5
MEAN_MOTION_DDOT = 0

CCSDS_OMM_VERS = 2.0
CREATION_DATE  = 
ORIGINATOR     = 

OBJECT_NAME    = ARIANE 40+ R/B
OBJECT_ID      = 1995-021B
CENTER_NAME    = EARTH
REF_FRAME      = TEME
TIME_SYSTEM    = UTC
MEAN_ELEMENT_THEORY = SGP/SGP4

EPOCH          = 2025-11-13T16:57:39.426048
MEAN_MOTION    = 14.39663270
ECCENTRICITY   = .00077359
INCLINATION    = 98.4685
RA_OF_ASC_NODE = 25.6416
ARG_OF_PERICENTER = 125.1698
MEAN_ANOMALY   = 45.5780

EPHEMERIS_TYPE = 0
CLASSIFICATION_TYPE = U
NORAD_CAT_ID   = 23561
ELEMENT_SET_NO = 999
REV_AT_EPOCH   = 60255
BSTAR          = .30264952E-3
MEAN_MOTION_DOT = .903E-5
MEAN_MOTION_DDOT = 0

CCSDS_OMM_VERS = 2.0
CREATION_DATE  = 
ORIGINATOR     = 

OBJECT_NAME    = SL-16 R/B
OBJECT_ID      = 1995-058B
CENTER_NAME    = EARTH
REF_FRAME      = TEME
TIME_SYSTEM    = UTC
MEAN_ELEMENT_THEORY = SGP/SGP4

EPOCH          = 2025-11-13T17:41:06.923616
MEAN_MOTION    = 14.15476885
ECCENTRICITY   = .00149171
INCLINATION    = 71.0227
RA_OF_ASC_NODE = 63.6930
ARG_OF_PERICENTER = 292.6438
MEAN_ANOMALY   = 67.3107

EPHEMERIS_TYPE = 0
CLASSIFICATION_TYPE = U
NORAD_CAT_ID   = 23705
ELEMENT_SET_NO = 999
REV_AT_EPOCH   = 55144
BSTAR          = .4866335E-5
MEAN_MOTION_DOT = -.38E-6
MEAN_MOTION_DDOT = 0

